STARLINK-3875           
1 52483U 22049AJ  25293.28850179 -.00001258  00000+0 -60981-4 0  9995
2 52483  53.2169 319.4062 0001446  97.4301 262.6855 15.08827682192434
STARLINK-3887           
1 52484U 22049AK  25293.26182264 -.00001291  00000+0 -63032-4 0  9994
2 52484  53.2183 329.5291 0001401  93.8003 266.3150 15.08831334191052
STARLINK-3913           
1 52485U 22049AL  25293.28113636 -.00003663  00000+0 -21220-3 0  9991
2 52485  53.2170 319.4388 0001380  92.8593 267.2558 15.08835376191190
STARLINK-3918           
1 52486U 22049AM  25293.32070171 -.00000742  00000+0 -28543-4 0  9994
2 52486  53.2180 329.2629 0001471  91.7670 268.3491 15.08830855191065
STARLINK-3902           
1 52487U 22049AN  25293.29219571  .00004769  00000+0  31745-3 0  9998
2 52487  53.2168 319.4951 0001356  95.3418 264.7729 15.08845961192433
STARLINK-3892           
1 52488U 22049AP  25293.31701465 -.00003338  00000+0 -19177-3 0  9998
2 52488  53.2171 329.2782 0001086  78.7795 281.3319 15.08839407191068
STARLINK-3923           
1 52489U 22049AQ  25293.25814646  .00004693  00000+0  31279-3 0  9998
2 52489  53.2178 329.5451 0001089  75.0015 285.1098 15.08837283191055
STARLINK-3914           
1 52490U 22049AR  25293.26642054  .00000001  00000+0  18162-4 0  9999
2 52490  53.2184 319.5077 0001485  93.1163 266.9999 15.08834779191191
STARLINK-3908           
1 52491U 22049AS  25293.27378709  .00007671  00000+0  49939-3 0  9999
2 52491  53.2161 319.4746 0001376  91.1697 268.9453 15.08850073191190
STARLINK-3916           
1 52492U 22049AT  25293.25906359  .00000109  00000+0  24937-4 0  9997
2 52492  53.2186 319.5373 0001648  87.3259 272.7922 15.08831593191198
STARLINK-3883           
1 52493U 22049AU  25293.27010212 -.00001263  00000+0 -61287-4 0  9997
2 52493  53.2177 319.4924 0001766  79.7140 280.4052 15.08830004191191
STARLINK-3857           
1 52494U 22049AV  25293.31425577  .00000230  00000+0  32539-4 0  9996
2 52494  53.2171 319.2928 0001469  88.7486 271.3675 15.08829432191206
STARLINK-3871           
1 52496U 22049AX  25293.28343128 -.00000458  00000+0 -10669-4 0  9999
2 52496  53.2175 314.4287 0001458  95.9125 264.2034 15.08840116191263
STARLINK-3884           
1 52497U 22049AY  25293.25537187 -.00002171  00000+0 -11842-3 0  9994
2 52497  53.2171 319.5587 0001766  93.2098 266.9096 15.08821865191190
STARLINK-3925           
1 52498U 22049AZ  25293.29678414 -.00001047  00000+0 -47687-4 0  9996
2 52498  53.2165 309.3696 0001351  82.5588 277.5558 15.08828396191330
STARLINK-3894           
1 52499U 22049BA  25293.31793837 -.00006220  00000+0 -37309-3 0  9994
2 52499  53.2171 319.2764 0001623 100.2140 259.9035 15.08834494191204
