[{"OBJECT_NAME":"STARLINK-3875","OBJECT_ID":"2022-049AJ","EPOCH":"2025-10-20T06:55:26.554656","MEAN_MOTION":15.08827682,"ECCENTRICITY":0.00014463,"INCLINATION":53.2169,"RA_OF_ASC_NODE":319.4062,"ARG_OF_PERICENTER":97.4301,"MEAN_ANOMALY":262.6855,"EPHEMERIS_TYPE":0,"CLASSIFICATION_TYPE":"U","NORAD_CAT_ID":52483,"ELEMENT_SET_NO":999,"REV_AT_EPOCH":19243,"BSTAR":-6.0981437e-5,"MEAN_MOTION_DOT":-1.258e-5,"MEAN_MOTION_DDOT":0},{"OBJECT_NAME":"STARLINK-3887","OBJECT_ID":"2022-049AK","EPOCH":"2025-10-20T06:17:01.476096","MEAN_MOTION":15.08831334,"ECCENTRICITY":0.00014014,"INCLINATION":53.2183,"RA_OF_ASC_NODE":329.5291,"ARG_OF_PERICENTER":93.8003,"MEAN_ANOMALY":266.315,"EPHEMERIS_TYPE":0,"CLASSIFICATION_TYPE":"U","NORAD_CAT_ID":52484,"ELEMENT_SET_NO":999,"REV_AT_EPOCH":19105,"BSTAR":-6.3031696e-5,"MEAN_MOTION_DOT":-1.291e-5,"MEAN_MOTION_DDOT":0},{"OBJECT_NAME":"STARLINK-3913","OBJECT_ID":"2022-049AL","EPOCH":"2025-10-20T06:44:50.181504","MEAN_MOTION":15.08835376,"ECCENTRICITY":0.00013803,"INCLINATION":53.217,"RA_OF_ASC_NODE":319.4388,"ARG_OF_PERICENTER":92.8593,"MEAN_ANOMALY":267.2558,"EPHEMERIS_TYPE":0,"CLASSIFICATION_TYPE":"U","NORAD_CAT_ID":52485,"ELEMENT_SET_NO":999,"REV_AT_EPOCH":19119,"BSTAR":-0.00021220325,"MEAN_MOTION_DOT":-3.663e-5,"MEAN_MOTION_DDOT":0},{"OBJECT_NAME":"STARLINK-3918","OBJECT_ID":"2022-049AM","EPOCH":"2025-10-20T07:41:48.627744","MEAN_MOTION":15.08830855,"ECCENTRICITY":0.00014711,"INCLINATION":53.218,"RA_OF_ASC_NODE":329.2629,"ARG_OF_PERICENTER":91.767,"MEAN_ANOMALY":268.3491,"EPHEMERIS_TYPE":0,"CLASSIFICATION_TYPE":"U","NORAD_CAT_ID":52486,"ELEMENT_SET_NO":999,"REV_AT_EPOCH":19106,"BSTAR":-2.8542755e-5,"MEAN_MOTION_DOT":-7.42e-6,"MEAN_MOTION_DDOT":0},{"OBJECT_NAME":"STARLINK-3902","OBJECT_ID":"2022-049AN","EPOCH":"2025-10-20T07:00:45.709344","MEAN_MOTION":15.08845961,"ECCENTRICITY":0.00013566,"INCLINATION":53.2168,"RA_OF_ASC_NODE":319.4951,"ARG_OF_PERICENTER":95.3418,"MEAN_ANOMALY":264.7729,"EPHEMERIS_TYPE":0,"CLASSIFICATION_TYPE":"U","NORAD_CAT_ID":52487,"ELEMENT_SET_NO":999,"REV_AT_EPOCH":19243,"BSTAR":0.00031744879,"MEAN_MOTION_DOT":4.769e-5,"MEAN_MOTION_DDOT":0},{"OBJECT_NAME":"STARLINK-3892","OBJECT_ID":"2022-049AP","EPOCH":"2025-10-20T07:36:30.065760","MEAN_MOTION":15.08839407,"ECCENTRICITY":0.00010869,"INCLINATION":53.2171,"RA_OF_ASC_NODE":329.2782,"ARG_OF_PERICENTER":78.7795,"MEAN_ANOMALY":281.3319,"EPHEMERIS_TYPE":0,"CLASSIFICATION_TYPE":"U","NORAD_CAT_ID":52488,"ELEMENT_SET_NO":999,"REV_AT_EPOCH":19106,"BSTAR":-0.00019176702,"MEAN_MOTION_DOT":-3.338e-5,"MEAN_MOTION_DDOT":0},{"OBJECT_NAME":"STARLINK-3923","OBJECT_ID":"2022-049AQ","EPOCH":"2025-10-20T06:11:43.854144","MEAN_MOTION":15.08837283,"ECCENTRICITY":0.00010899,"INCLINATION":53.2178,"RA_OF_ASC_NODE":329.5451,"ARG_OF_PERICENTER":75.0015,"MEAN_ANOMALY":285.1098,"EPHEMERIS_TYPE":0,"CLASSIFICATION_TYPE":"U","NORAD_CAT_ID":52489,"ELEMENT_SET_NO":999,"REV_AT_EPOCH":19105,"BSTAR":0.00031279075,"MEAN_MOTION_DOT":4.693e-5,"MEAN_MOTION_DDOT":0},{"OBJECT_NAME":"STARLINK-3914","OBJECT_ID":"2022-049AR","EPOCH":"2025-10-20T06:23:38.734656","MEAN_MOTION":15.08834779,"ECCENTRICITY":0.00014852,"INCLINATION":53.2184,"RA_OF_ASC_NODE":319.5077,"ARG_OF_PERICENTER":93.1163,"MEAN_ANOMALY":266.9999,"EPHEMERIS_TYPE":0,"CLASSIFICATION_TYPE":"U","NORAD_CAT_ID":52490,"ELEMENT_SET_NO":999,"REV_AT_EPOCH":19119,"BSTAR":1.8162041e-5,"MEAN_MOTION_DOT":1.0e-8,"MEAN_MOTION_DDOT":0},{"OBJECT_NAME":"STARLINK-3908","OBJECT_ID":"2022-049AS","EPOCH":"2025-10-20T06:34:15.204576","MEAN_MOTION":15.08850073,"ECCENTRICITY":0.00013768,"INCLINATION":53.2161,"RA_OF_ASC_NODE":319.4746,"ARG_OF_PERICENTER":91.1697,"MEAN_ANOMALY":268.9453,"EPHEMERIS_TYPE":0,"CLASSIFICATION_TYPE":"U","NORAD_CAT_ID":52491,"ELEMENT_SET_NO":999,"REV_AT_EPOCH":19119,"BSTAR":0.00049938951,"MEAN_MOTION_DOT":7.671e-5,"MEAN_MOTION_DDOT":0},{"OBJECT_NAME":"STARLINK-3916","OBJECT_ID":"2022-049AT","EPOCH":"2025-10-20T06:13:03.094176","MEAN_MOTION":15.08831593,"ECCENTRICITY":0.00016483,"INCLINATION":53.2186,"RA_OF_ASC_NODE":319.5373,"ARG_OF_PERICENTER":87.3259,"MEAN_ANOMALY":272.7922,"EPHEMERIS_TYPE":0,"CLASSIFICATION_TYPE":"U","NORAD_CAT_ID":52492,"ELEMENT_SET_NO":999,"REV_AT_EPOCH":19119,"BSTAR":2.4936764e-5,"MEAN_MOTION_DOT":1.09e-6,"MEAN_MOTION_DDOT":0},{"OBJECT_NAME":"STARLINK-3883","OBJECT_ID":"2022-049AU","EPOCH":"2025-10-20T06:28:56.823168","MEAN_MOTION":15.08830004,"ECCENTRICITY":0.00017662,"INCLINATION":53.2177,"RA_OF_ASC_NODE":319.4924,"ARG_OF_PERICENTER":79.714,"MEAN_ANOMALY":280.4052,"EPHEMERIS_TYPE":0,"CLASSIFICATION_TYPE":"U","NORAD_CAT_ID":52493,"ELEMENT_SET_NO":999,"REV_AT_EPOCH":19119,"BSTAR":-6.1287283e-5,"MEAN_MOTION_DOT":-1.263e-5,"MEAN_MOTION_DDOT":0},{"OBJECT_NAME":"STARLINK-3857","OBJECT_ID":"2022-049AV","EPOCH":"2025-10-20T07:32:31.698528","MEAN_MOTION":15.08829432,"ECCENTRICITY":0.0001469,"INCLINATION":53.2171,"RA_OF_ASC_NODE":319.2928,"ARG_OF_PERICENTER":88.7486,"MEAN_ANOMALY":271.3675,"EPHEMERIS_TYPE":0,"CLASSIFICATION_TYPE":"U","NORAD_CAT_ID":52494,"ELEMENT_SET_NO":999,"REV_AT_EPOCH":19120,"BSTAR":3.2538871e-5,"MEAN_MOTION_DOT":2.3e-6,"MEAN_MOTION_DDOT":0},{"OBJECT_NAME":"STARLINK-3871","OBJECT_ID":"2022-049AX","EPOCH":"2025-10-20T06:48:08.462592","MEAN_MOTION":15.08840116,"ECCENTRICITY":0.00014588,"INCLINATION":53.2175,"RA_OF_ASC_NODE":314.4287,"ARG_OF_PERICENTER":95.9125,"MEAN_ANOMALY":264.2034,"EPHEMERIS_TYPE":0,"CLASSIFICATION_TYPE":"U","NORAD_CAT_ID":52496,"ELEMENT_SET_NO":999,"REV_AT_EPOCH":19126,"BSTAR":-1.0668874e-5,"MEAN_MOTION_DOT":-4.58e-6,"MEAN_MOTION_DDOT":0},{"OBJECT_NAME":"STARLINK-3884","OBJECT_ID":"2022-049AY","EPOCH":"2025-10-20T06:07:44.129568","MEAN_MOTION":15.08821865,"ECCENTRICITY":0.00017669,"INCLINATION":53.2171,"RA_OF_ASC_NODE":319.5587,"ARG_OF_PERICENTER":93.2098,"MEAN_ANOMALY":266.9096,"EPHEMERIS_TYPE":0,"CLASSIFICATION_TYPE":"U","NORAD_CAT_ID":52497,"ELEMENT_SET_NO":999,"REV_AT_EPOCH":19119,"BSTAR":-0.00011842359,"MEAN_MOTION_DOT":-2.171e-5,"MEAN_MOTION_DDOT":0},{"OBJECT_NAME":"STARLINK-3925","OBJECT_ID":"2022-049AZ","EPOCH":"2025-10-20T07:07:22.149696","MEAN_MOTION":15.08828396,"ECCENTRICITY":0.00013514,"INCLINATION":53.2165,"RA_OF_ASC_NODE":309.3696,"ARG_OF_PERICENTER":82.5588,"MEAN_ANOMALY":277.5558,"EPHEMERIS_TYPE":0,"CLASSIFICATION_TYPE":"U","NORAD_CAT_ID":52498,"ELEMENT_SET_NO":999,"REV_AT_EPOCH":19133,"BSTAR":-4.7687136e-5,"MEAN_MOTION_DOT":-1.047e-5,"MEAN_MOTION_DDOT":0},{"OBJECT_NAME":"STARLINK-3894","OBJECT_ID":"2022-049BA","EPOCH":"2025-10-20T07:37:49.875168","MEAN_MOTION":15.08834494,"ECCENTRICITY":0.00016236,"INCLINATION":53.2171,"RA_OF_ASC_NODE":319.2764,"ARG_OF_PERICENTER":100.214,"MEAN_ANOMALY":259.9035,"EPHEMERIS_TYPE":0,"CLASSIFICATION_TYPE":"U","NORAD_CAT_ID":52499,"ELEMENT_SET_NO":999,"REV_AT_EPOCH":19120,"BSTAR":-0.00037309012,"MEAN_MOTION_DOT":-6.22e-5,"MEAN_MOTION_DDOT":0}]
